{
  "type": "FeatureCollection",
  "features": [
    {
      "type": "Feature",
      "properties": {
        "norad_id": 34022,
        "name": "COSMOS 2251 DEB",
        "group": "cosmos-2251-debris",
        "lat": -10.623308306144077,
        "lon": -78.90407512316814,
        "alt_km": 749.872094279609,
        "timestamp": "2025-12-05T11:32:56.410709+00:00",
        "meta_object_name": "COSMOS 2251 DEB",
        "meta_object_id": "1993-036HH",
        "meta_epoch": "2025-12-04T07:48:14.111712",
        "meta_mean_motion": 14.38942659,
        "meta_eccentricity": 0.0022412,
        "meta_inclination": 74.0538,
        "meta_ra_of_asc_node": 286.2993,
        "meta_arg_of_pericenter": 352.8277,
        "meta_mean_anomaly": 130.1128,
        "meta_ephemeris_type": 0,
        "meta_classification_type": "U",
        "meta_norad_cat_id": 34022,
        "meta_element_set_no": 999,
        "meta_rev_at_epoch": 88074,
        "meta_bstar": 0.0004991,
        "meta_mean_motion_dot": 1.517e-05,
        "meta_mean_motion_ddot": 0,
        "tle_line1": "1 34022U 93036HH  25338.32516333  .00001517  00000+0  49910-3 0  9998",
        "tle_line2": "2 34022  74.0538 286.2993 0022412 352.8277 130.1128 14.38942659880748"
      },
      "geometry": {
        "type": "Point",
        "coordinates": [
          -78.90407512316814,
          -10.623308306144077
        ]
      }
    },
    {
      "type": "Feature",
      "properties": {
        "norad_id": 34023,
        "name": "COSMOS 2251 DEB",
        "group": "cosmos-2251-debris",
        "lat": -44.45736661701461,
        "lon": 101.5009877672976,
        "alt_km": 772.2451364448734,
        "timestamp": "2025-12-05T11:32:56.410719+00:00",
        "meta_object_name": "COSMOS 2251 DEB",
        "meta_object_id": "1993-036HJ",
        "meta_epoch": "2025-12-04T13:38:21.570144",
        "meta_mean_motion": 14.40532219,
        "meta_eccentricity": 0.0018113,
        "meta_inclination": 74.0248,
        "meta_ra_of_asc_node": 266.8646,
        "meta_arg_of_pericenter": 3.8669,
        "meta_mean_anomaly": 170.6235,
        "meta_ephemeris_type": 0,
        "meta_classification_type": "U",
        "meta_norad_cat_id": 34023,
        "meta_element_set_no": 999,
        "meta_rev_at_epoch": 88096,
        "meta_bstar": 0.00068779,
        "meta_mean_motion_dot": 2.168e-05,
        "meta_mean_motion_ddot": 0,
        "tle_line1": "1 34023U 93036HJ  25338.56830521  .00002168  00000+0  68779-3 0  9990",
        "tle_line2": "2 34023  74.0248 266.8646 0018113   3.8669 170.6235 14.40532219880969"
      },
      "geometry": {
        "type": "Point",
        "coordinates": [
          101.5009877672976,
          -44.45736661701461
        ]
      }
    },
    {
      "type": "Feature",
      "properties": {
        "norad_id": 34024,
        "name": "COSMOS 2251 DEB",
        "group": "cosmos-2251-debris",
        "lat": 10.421896417801225,
        "lon": -27.685272059415983,
        "alt_km": 760.4498397669449,
        "timestamp": "2025-12-05T11:32:56.410729+00:00",
        "meta_object_name": "COSMOS 2251 DEB",
        "meta_object_id": "1993-036HK",
        "meta_epoch": "2025-12-04T10:59:28.716000",
        "meta_mean_motion": 14.35381918,
        "meta_eccentricity": 0.0020645,
        "meta_inclination": 74.0462,
        "meta_ra_of_asc_node": 331.1734,
        "meta_arg_of_pericenter": 24.0772,
        "meta_mean_anomaly": 101.5964,
        "meta_ephemeris_type": 0,
        "meta_classification_type": "U",
        "meta_norad_cat_id": 34024,
        "meta_element_set_no": 999,
        "meta_rev_at_epoch": 87905,
        "meta_bstar": 0.00036807,
        "meta_mean_motion_dot": 1.033e-05,
        "meta_mean_motion_ddot": 0,
        "tle_line1": "1 34024U 93036HK  25338.45797125  .00001033  00000+0  36807-3 0  9998",
        "tle_line2": "2 34024  74.0462 331.1734 0020645  24.0772 101.5964 14.35381918879057"
      },
      "geometry": {
        "type": "Point",
        "coordinates": [
          -27.685272059415983,
          10.421896417801225
        ]
      }
    },
    {
      "type": "Feature",
      "properties": {
        "norad_id": 34026,
        "name": "COSMOS 2251 DEB",
        "group": "cosmos-2251-debris",
        "lat": -63.79317518618472,
        "lon": -46.93295834893366,
        "alt_km": 928.5596843904686,
        "timestamp": "2025-12-05T11:32:56.410739+00:00",
        "meta_object_name": "COSMOS 2251 DEB",
        "meta_object_id": "1993-036HM",
        "meta_epoch": "2025-12-04T12:02:58.383168",
        "meta_mean_motion": 13.65285004,
        "meta_eccentricity": 0.0351163,
        "meta_inclination": 73.7671,
        "meta_ra_of_asc_node": 350.9846,
        "meta_arg_of_pericenter": 222.1971,
        "meta_mean_anomaly": 294.1928,
        "meta_ephemeris_type": 0,
        "meta_classification_type": "U",
        "meta_norad_cat_id": 34026,
        "meta_element_set_no": 999,
        "meta_rev_at_epoch": 83419,
        "meta_bstar": 0.0016544,
        "meta_mean_motion_dot": 2.025e-05,
        "meta_mean_motion_ddot": 0,
        "tle_line1": "1 34026U 93036HM  25338.50206462  .00002025  00000+0  16544-2 0  9992",
        "tle_line2": "2 34026  73.7671 350.9846 0351163 222.1971 294.1928 13.65285004834190"
      },
      "geometry": {
        "type": "Point",
        "coordinates": [
          -46.93295834893366,
          -63.79317518618472
        ]
      }
    },
    {
      "type": "Feature",
      "properties": {
        "norad_id": 34028,
        "name": "COSMOS 2251 DEB",
        "group": "cosmos-2251-debris",
        "lat": 22.98811014012686,
        "lon": 5.424731409894701,
        "alt_km": 1325.5050604230491,
        "timestamp": "2025-12-05T11:32:56.410750+00:00",
        "meta_object_name": "COSMOS 2251 DEB",
        "meta_object_id": "1993-036HP",
        "meta_epoch": "2025-12-04T12:34:09.192000",
        "meta_mean_motion": 13.20616679,
        "meta_eccentricity": 0.0544035,
        "meta_inclination": 73.8835,
        "meta_ra_of_asc_node": 359.847,
        "meta_arg_of_pericenter": 139.0981,
        "meta_mean_anomaly": 20.3029,
        "meta_ephemeris_type": 0,
        "meta_classification_type": "U",
        "meta_norad_cat_id": 34028,
        "meta_element_set_no": 999,
        "meta_rev_at_epoch": 80899,
        "meta_bstar": 0.00029572,
        "meta_mean_motion_dot": 2.44e-06,
        "meta_mean_motion_ddot": 0,
        "tle_line1": "1 34028U 93036HP  25338.52371750  .00000244  00000+0  29572-3 0  9996",
        "tle_line2": "2 34028  73.8835 359.8470 0544035 139.0981  20.3029 13.20616679808992"
      },
      "geometry": {
        "type": "Point",
        "coordinates": [
          5.424731409894701,
          22.98811014012686
        ]
      }
    },
    {
      "type": "Feature",
      "properties": {
        "norad_id": 34031,
        "name": "COSMOS 2251 DEB",
        "group": "cosmos-2251-debris",
        "lat": -67.9124682091151,
        "lon": 104.61542204428862,
        "alt_km": 685.889601316544,
        "timestamp": "2025-12-05T11:32:56.410761+00:00",
        "meta_object_name": "COSMOS 2251 DEB",
        "meta_object_id": "1993-036HS",
        "meta_epoch": "2025-12-04T13:07:06.996000",
        "meta_mean_motion": 14.59532673,
        "meta_eccentricity": 0.0022914,
        "meta_inclination": 74.0115,
        "meta_ra_of_asc_node": 151.3536,
        "meta_arg_of_pericenter": 271.9266,
        "meta_mean_anomaly": 144.758,
        "meta_ephemeris_type": 0,
        "meta_classification_type": "U",
        "meta_norad_cat_id": 34031,
        "meta_element_set_no": 999,
        "meta_rev_at_epoch": 88446,
        "meta_bstar": 0.0028239,
        "meta_mean_motion_dot": 0.0001346,
        "meta_mean_motion_ddot": 0,
        "tle_line1": "1 34031U 93036HS  25338.54660875  .00013460  00000+0  28239-2 0  9993",
        "tle_line2": "2 34031  74.0115 151.3536 0022914 271.9266 144.7580 14.59532673884460"
      },
      "geometry": {
        "type": "Point",
        "coordinates": [
          104.61542204428862,
          -67.9124682091151
        ]
      }
    },
    {
      "type": "Feature",
      "properties": {
        "norad_id": 34035,
        "name": "COSMOS 2251 DEB",
        "group": "cosmos-2251-debris",
        "lat": -64.44405633030252,
        "lon": -33.89847080502547,
        "alt_km": 718.7512908449435,
        "timestamp": "2025-12-05T11:32:56.410771+00:00",
        "meta_object_name": "COSMOS 2251 DEB",
        "meta_object_id": "1993-036HW",
        "meta_epoch": "2025-12-04T04:57:23.220864",
        "meta_mean_motion": 14.51777673,
        "meta_eccentricity": 0.004414,
        "meta_inclination": 74.0658,
        "meta_ra_of_asc_node": 5.185,
        "meta_arg_of_pericenter": 8.7528,
        "meta_mean_anomaly": 102.6253,
        "meta_ephemeris_type": 0,
        "meta_classification_type": "U",
        "meta_norad_cat_id": 34035,
        "meta_element_set_no": 999,
        "meta_rev_at_epoch": 87842,
        "meta_bstar": 0.0034037,
        "meta_mean_motion_dot": 0.00013861,
        "meta_mean_motion_ddot": 0,
        "tle_line1": "1 34035U 93036HW  25338.20651876  .00013861  00000+0  34037-2 0  9999",
        "tle_line2": "2 34035  74.0658   5.1850 0044140   8.7528 102.6253 14.51777673878425"
      },
      "geometry": {
        "type": "Point",
        "coordinates": [
          -33.89847080502547,
          -64.44405633030252
        ]
      }
    }
  ]
}